KUIPER-00053            
1 64513U 25134P   25246.25209593  .00071499  00000+0  19033-2 0  9995
2 64513  51.8789 344.2013 0002996 355.6928   4.4033 15.37545315 12286
KUIPER-00054            
1 64514U 25134Q   25246.25965655  .00076142  00000+0  20182-2 0  9991
2 64514  51.8758 344.2446 0005272  15.8925 344.2226 15.37641553 12285
KUIPER-00055            
1 64515U 25134R   25245.51574547  .00071211  00000+0  18644-2 0  9998
2 64515  51.8783 347.5223 0002048 341.4667  18.6245 15.38061908 12174
KUIPER-00056            
1 64516U 25134S   25246.27135371  .00087274  00000+0  23412-2 0  9996
2 64516  51.8731 344.3101 0005746  14.8938 345.2217 15.37202050 12282
KUIPER-00057            
1 64517U 25134T   25246.25002315 -.01389046  00000+0 -66194-1 0  9994
2 64517  51.8769 345.7420 0011804   6.6118 286.1888 15.21878378  4298
KUIPER-00058            
1 64518U 25134U   25246.25002315 -.00660556  00000+0 -20925-1 0  9994
2 64518  51.8743 344.6140 0006678  11.6241 131.4219 15.34488482  5540
KUIPER-00059            
1 64519U 25134V   25245.97392989  .00071030  00000+0  18560-2 0  9996
2 64519  51.8786 345.3391 0003023 352.6496   7.4446 15.38120724 12240
KUIPER-00060            
1 64520U 25134W   25245.98208227  .00054043  00000+0  14229-2 0  9993
2 64520  51.8789 345.3938 0003409 339.1165  20.9682 15.38009835 12233
